KUIPER-00167            
1 65780U 25217U   25329.83335647 -.00935921  00000+0 -53863-1 0  9999
2 65780  51.8785 148.3281 0010702 283.6508  59.6610 15.14697276  3559
KUIPER-00168            
1 65781U 25217V   25329.79130263  .00039355  00000+0  10177-2 0  9998
2 65781  51.8699 145.9122 0002522 188.4352 171.6593 15.38708635  9448
KUIPER-00169            
1 65782U 25217W   25329.75455794  .00044129  00000+0  11572-2 0  9999
2 65782  51.8691 146.4061 0002605 263.6912  96.3778 15.38224989  9431
KUIPER-00170            
1 65783U 25217X   25329.83335647 -.00219726  00000+0 -71000-2 0  9994
2 65783  51.8673 146.5596 0006016 303.0055 228.1170 15.32434201  5737
KUIPER-00171            
1 65784U 25217Y   25329.77918758  .00186870  00000+0  17265-2 0  9992
2 65784  51.8582 142.1015 0008200 299.6581  60.3601 15.66405252  9499
KUIPER-00172            
1 65785U 25217Z   25329.80338720  .00078612  00000+0  20300-2 0  9990
2 65785  51.8701 145.9884 0002538 253.3307 106.7402 15.38437486  9441
KUIPER-00173            
1 65786U 25217AA  25329.74808678  .00035387  00000+0  92945-3 0  9995
2 65786  51.8689 146.3625 0002887 250.8406 109.2268 15.38277711  9434
KUIPER-00174            
1 65787U 25217AB  25329.79732921  .00047964  00000+0  12452-2 0  9996
2 65787  51.8704 145.9479 0003583 213.0329 147.0435 15.38494964  9442
